STARLINK-3352
1 51147U 22005AV  26092.69285447  .00040306  00000+0  15192-2 0  9993
2 51147  53.1856 186.1077 0002771   9.5087 350.5965 15.26705892232436
